YAOGAN-43 01G           
1 60464U 24148G   26068.44348481  .00010133  00000+0  35873-3 0  9993
2 60464  35.0006  62.0013 0007382 306.3543  53.6492 15.28332833 87004
STARLINK-36107          
1 66979U 25288W   26068.30287971  .00023894  00000+0  87468-3 0  9992
2 66979  43.0022  26.0239 0001332 256.7609 103.3094 15.27591966 15227
